[{"OBJECT_NAME":"STARLINK-31969","OBJECT_ID":"2024-100E","EPOCH":"2026-03-09T11:16:58.802592","MEAN_MOTION":15.27573262,"ECCENTRICITY":8.466e-5,"INCLINATION":43.0022,"RA_OF_ASC_NODE":123.1512,"ARG_OF_PERICENTER":208.8511,"MEAN_ANOMALY":151.2294,"EPHEMERIS_TYPE":0,"CLASSIFICATION_TYPE":"U","NORAD_CAT_ID":59889,"ELEMENT_SET_NO":999,"REV_AT_EPOCH":10116,"BSTAR":-4.4529052e-5,"MEAN_MOTION_DOT":-1.487e-5,"MEAN_MOTION_DDOT":0},{"OBJECT_NAME":"LUR-1","OBJECT_ID":"2024-149AQ","EPOCH":"2026-03-09T19:05:45.284064","MEAN_MOTION":15.28658648,"ECCENTRICITY":0.00027765,"INCLINATION":97.379,"RA_OF_ASC_NODE":148.4255,"ARG_OF_PERICENTER":309.1571,"MEAN_ANOMALY":50.9421,"EPHEMERIS_TYPE":0,"CLASSIFICATION_TYPE":"U","NORAD_CAT_ID":60506,"ELEMENT_SET_NO":999,"REV_AT_EPOCH":8678,"BSTAR":0.0003298462,"MEAN_MOTION_DOT":9.121e-5,"MEAN_MOTION_DDOT":0}]
