STARLINK-31969          
1 59889U 24100E   26068.47012503 -.00001487  00000+0 -44529-4 0  9999
2 59889  43.0022 123.1512 0000846 208.8511 151.2294 15.27573262101163
LUR-1                   
1 60506U 24149AQ  26068.79566301  .00009121  00000+0  32985-3 0  9998
2 60506  97.3790 148.4255 0002777 309.1571  50.9421 15.28658648 86785
